NORAD_CAT_ID,OBJECT_NAME,OBJECT_TYPE,EPOCH,MEAN_MOTION,ECCENTRICITY,INCLINATION,RA_OF_ASC_NODE,ARG_OF_PERICENTER,MEAN_ANOMALY,BSTAR,MEAN_MOTION_DOT,MEAN_MOTION_DDOT,TLE_LINE0,TLE_LINE1,TLE_LINE2,SEMIMAJOR_AXIS,PERIOD,APOGEE,PERIGEE,DECAYED
51988.0,STARLINK-3640,PAYLOAD,2023-07-03 01:52:41,15.0885283,0.0001272,53.2168,121.2559,97.3051,262.8086,0.00023601,3.471e-05,0.0,0 STARLINK-3640,1 51988U 22025AJ  23184.07826119  .00003471  00000-0  23601-3 0  9994,2 51988  53.2168 121.2559 0001272  97.3051 262.8086 15.08852830 74137,6917.841,95.437,540.586,538.826,0.0
51988.0,STARLINK-3640,PAYLOAD,2023-07-03 13:00:24,15.0884435,0.0001262,53.2165,119.1719,82.1149,277.9986,8.9646e-05,1.139e-05,0.0,0 STARLINK-3640,1 51988U 22025AJ  23184.54194927  .00001139  00000-0  89646-4 0  9992,2 51988  53.2165 119.1719 0001262  82.1149 277.9986 15.08844350 74209,6917.867,95.437,540.605,538.859,0.0
51988.0,STARLINK-3640,PAYLOAD,2023-07-04 03:18:53,15.08842638,0.000142,53.2167,116.4973,92.154,267.9614,-4.6166e-05,-1.023e-05,0.0,0 STARLINK-3640,1 51988U 22025AJ  23185.13811892 -.00001023  00000-0 -46166-4 0  9999,2 51988  53.2167 116.4973 0001420  92.1540 267.9614 15.08842638 74298,6917.872,95.437,540.72,538.755,0.0
51988.0,STARLINK-3640,PAYLOAD,2023-07-05 01:34:16,15.08852458,0.0001326,53.2166,112.3339,93.6865,266.4278,-0.00011874,-2.178e-05,0.0,0 STARLINK-3640,1 51988U 22025AJ  23186.06547008 -.00002178  00000-0 -11874-3 0  9996,2 51988  53.2166 112.3339 0001326  93.6865 266.4278 15.08852458 74436,6917.842,95.437,540.625,538.79,0.0
51988.0,STARLINK-3640,PAYLOAD,2023-07-06 04:35:49,15.08846031,0.0001389,53.2171,107.2784,91.3465,268.7686,0.00010127,1.324e-05,0.0,0 STARLINK-3640,1 51988U 22025AJ  23187.19154433  .00001324  00000-0  10127-3 0  9997,2 51988  53.2171 107.2784 0001389  91.3465 268.7686 15.08846031 74606,6917.862,95.437,540.688,538.766,0.0
51988.0,STARLINK-3640,PAYLOAD,2023-07-07 02:51:13,15.08841791,0.000149,53.2179,103.12,82.3898,277.7263,9.2071e-07,-2.73e-06,0.0,0 STARLINK-3640,1 51988U 22025AJ  23188.11891100 -.00000273  00000-0  92071-6 0  9993,2 51988  53.2179 103.1200 0001490  82.3898 277.7263 15.08841791 74749,6917.875,95.437,540.771,538.709,0.0
51988.0,STARLINK-3640,PAYLOAD,2023-07-08 18:35:53,15.0883247,0.0001301,53.2175,95.6831,89.2744,270.8397,-2.1465e-05,-6.29e-06,0.0,0 STARLINK-3640,1 51988U 22025AJ  23189.77491966 -.00000629  00000-0 -21465-4 0  9995,2 51988  53.2175  95.6831 0001301  89.2744 270.8397 15.08832470 74990,6917.903,95.438,540.668,538.868,0.0
51988.0,STARLINK-3640,PAYLOAD,2023-07-10 02:23:35,15.08843567,0.0001157,53.218,89.7358,93.9728,266.1396,2.9728e-05,1.85e-06,0.0,0 STARLINK-3640,1 51988U 22025AJ  23191.09971396  .00000185  00000-0  29728-4 0  9998,2 51988  53.2180  89.7358 0001157  93.9728 266.1396 15.08843567 75196,6917.869,95.437,540.535,538.934,0.0
51988.0,STARLINK-3640,PAYLOAD,2023-07-10 10:20:31,15.08832172,0.0001362,53.2177,88.2476,90.7018,269.413,-7.3153e-05,-1.452e-05,0.0,0 STARLINK-3640,1 51988U 22025AJ  23191.43092569 -.00001452  00000-0 -73153-4 0  9993,2 51988  53.2177  88.2476 0001362  90.7018 269.4130 15.08832172 75240,6917.904,95.438,540.712,538.827,0.0
51988.0,STARLINK-3640,PAYLOAD,2023-07-10 23:03:38,15.0882112,0.00015,53.2187,85.8703,91.2831,268.8333,-1.2113e-05,-4.81e-06,0.0,0 STARLINK-3640,1 51988U 22025AJ  23191.96085662 -.00000481  00000-0 -12113-4 0  9997,2 51988  53.2187  85.8703 0001500  91.2831 268.8333 15.08821120 75328,6917.938,95.439,540.841,538.765,0.0
51988.0,STARLINK-3640,PAYLOAD,2023-07-11 00:39:01,15.08817581,0.0001116,53.2186,85.5731,94.2721,265.8399,-9.9792e-05,-1.875e-05,0.0,0 STARLINK-3640,1 51988U 22025AJ  23192.02710207 -.00001875  00000-0 -99792-4 0  9991,2 51988  53.2186  85.5731 0001116  94.2721 265.8399 15.08817581 75335,6917.949,95.439,540.586,539.042,0.0
51988.0,STARLINK-3640,PAYLOAD,2023-07-11 22:54:24,15.08842962,0.0001155,53.2177,81.4107,94.23,265.8824,8.0392e-05,9.92e-06,0.0,0 STARLINK-3640,1 51988U 22025AJ  23192.95444516  .00000992  00000-0  80392-4 0  9993,2 51988  53.2177  81.4107 0001155  94.2300 265.8824 15.08842962 75472,6917.871,95.437,540.535,538.937,0.0
51988.0,STARLINK-3640,PAYLOAD,2023-07-13 16:14:25,15.08850636,0.00011,53.218,73.6773,101.8608,258.2508,-2.4439e-05,-6.77e-06,0.0,0 STARLINK-3640,1 51988U 22025AJ  23194.67668245 -.00000677  00000-0 -24439-4 0  9993,2 51988  53.2180  73.6773 0001100 101.8608 258.2508 15.08850636 75735,6917.848,95.437,540.474,538.952,0.0
51988.0,STARLINK-3640,PAYLOAD,2023-07-13 22:35:58,15.08846588,9.96e-05,53.2178,72.4866,96.2636,263.847,-4.5783e-05,-1.016e-05,0.0,0 STARLINK-3640,1 51988U 22025AJ  23194.94164399 -.00001016  00000-0 -45783-4 0  9997,2 51988  53.2178  72.4866 0000996  96.2636 263.8470 15.08846588 75777,6917.86,95.437,540.414,539.036,0.0
51988.0,STARLINK-3640,PAYLOAD,2023-07-15 01:37:29,15.08867222,0.0001075,53.2176,67.432,83.8314,276.28,-0.00011666,-2.145e-05,0.0,0 STARLINK-3640,1 51988U 22025AJ  23196.06770812 -.00002145  00000-0 -11666-3 0  9991,2 51988  53.2176  67.4320 0001075  83.8314 276.2800 15.08867222 75940,6917.797,95.436,540.406,538.919,0.0
51988.0,STARLINK-3640,PAYLOAD,2023-07-15 15:55:59,15.08832236,9.23e-05,53.2181,64.756,100.4247,259.6849,3.575e-06,-2.31e-06,0.0,0 STARLINK-3640,1 51988U 22025AJ  23196.66388574 -.00000231  00000-0  35750-5 0  9992,2 51988  53.2181  64.7560 0000923 100.4247 259.6849 15.08832236 76030,6917.904,95.438,540.408,539.131,0.0
51988.0,STARLINK-3640,PAYLOAD,2023-07-15 23:52:55,15.08839558,0.0001026,53.2181,63.2699,87.4015,272.7094,8.0471e-05,9.93e-06,0.0,0 STARLINK-3640,1 51988U 22025AJ  23196.99508106  .00000993  00000-0  80471-4 0  9996,2 51988  53.2181  63.2699 0001026  87.4015 272.7094 15.08839558 76086,6917.882,95.438,540.457,539.037,0.0
51988.0,STARLINK-3640,PAYLOAD,2023-07-16 15:46:47,15.08837489,0.0001043,53.2184,60.2968,92.256,267.8552,-5.6314e-05,-1.184e-05,0.0,0 STARLINK-3640,1 51988U 22025AJ  23197.65748852 -.00001184  00000-0 -56314-4 0  9998,2 51988  53.2184  60.2968 0001043  92.2560 267.8552 15.08837489 76189,6917.888,95.438,540.475,539.032,0.0
51988.0,STARLINK-3640,PAYLOAD,2023-07-16 23:43:42,15.08842466,0.0001033,53.2181,58.8105,93.7633,266.3477,-1.08e-05,-4.6e-06,0.0,0 STARLINK-3640,1 51988U 22025AJ  23197.98868440 -.00000460  00000-0 -10800-4 0  9996,2 51988  53.2181  58.8105 0001033  93.7633 266.3477 15.08842466 76235,6917.873,95.437,540.452,539.023,0.0
51988.0,STARLINK-3640,PAYLOAD,2023-07-17 23:34:28,15.08850923,0.0001006,53.2172,54.35,91.8412,268.2696,0.00024939,3.685e-05,0.0,0 STARLINK-3640,1 51988U 22025AJ  23198.98227687  .00003685  00000-0  24939-3 0  9996,2 51988  53.2172  54.3500 0001006  91.8412 268.2696 15.08850923 76386,6917.847,95.437,540.408,539.016,0.0
51988.0,STARLINK-3640,PAYLOAD,2023-07-18 23:25:16,15.08839493,0.0001056,53.2172,49.8893,81.3977,278.7134,7.943e-05,9.77e-06,0.0,0 STARLINK-3640,1 51988U 22025AJ  23199.97588549  .00000977  00000-0  79430-4 0  9991,2 51988  53.2172  49.8893 0001056  81.3977 278.7134 15.08839493 76534,6917.882,95.438,540.477,539.016,0.0
51988.0,STARLINK-3640,PAYLOAD,2023-07-20 18:20:41,15.08842922,0.0001109,53.2182,41.8613,78.8964,281.2152,0.00019552,2.825e-05,0.0,0 STARLINK-3640,1 51988U 22025AJ  23201.76436879  .00002825  00000-0  19552-3 0  9992,2 51988  53.2182  41.8613 0001109  78.8964 281.2152 15.08842922 76803,6917.871,95.437,540.504,538.969,0.0
51988.0,STARLINK-3640,PAYLOAD,2023-07-23 21:03:49,15.08834851,0.0001079,53.2169,27.8842,86.4553,273.6563,-4.2575e-05,-9.65e-06,0.0,0 STARLINK-3640,1 51988U 22025AJ  23204.87765561 -.00000965  00000-0 -42575-4 0  9997,2 51988  53.2169  27.8842 0001079  86.4553 273.6563 15.08834851 76163,6917.896,95.438,540.508,539.015,0.0
51988.0,STARLINK-3640,PAYLOAD,2023-07-24 22:29:58,15.08844873,0.0001023,53.219,23.1233,107.8745,252.2359,9.8517e-05,1.281e-05,0.0,0 STARLINK-3640,1 51988U 22025AJ  23205.93748683  .00001281  00000-0  98517-4 0  9998,2 51988  53.2190  23.1233 0001023 107.8745 252.2359 15.08844873 76329,6917.865,95.437,540.438,539.023,0.0
51988.0,STARLINK-3640,PAYLOAD,2023-07-26 11:03:51,15.08850448,0.0002687,53.2162,16.2912,61.6119,298.5144,-0.00012979,-2.354e-05,0.0,0 STARLINK-3640,1 51988U 22025AJ  23207.46101330 -.00002354  00000-0 -12979-3 0  9991,2 51988  53.2162  16.2912 0002687  61.6119 298.5144 15.08850448 76559,6917.848,95.437,541.572,537.855,0.0
51988.0,STARLINK-3640,PAYLOAD,2023-07-26 19:00:46,15.08850007,7.11e-05,53.216,14.8048,60.8613,299.245,-0.00016959,-2.986e-05,0.0,0 STARLINK-3640,1 51988U 22025AJ  23207.79220524 -.00002986  00000-0 -16959-3 0  9997,2 51988  53.2160  14.8048 0000711  60.8613 299.2450 15.08850007 76602,6917.85,95.437,540.207,539.223,0.0
51988.0,STARLINK-3640,PAYLOAD,2023-07-27 10:54:38,15.08837512,0.0001456,53.2158,11.8274,94.7886,265.3272,0.00012369,1.681e-05,0.0,0 STARLINK-3640,1 51988U 22025AJ  23208.45461613  .00001681  00000-0  12369-3 0  9997,2 51988  53.2158  11.8274 0001456  94.7886 265.3272 15.08837512 77818,6917.888,95.438,540.76,538.746,0.0
51988.0,STARLINK-3640,PAYLOAD,2023-07-27 18:51:34,15.08836963,0.0001138,53.2175,10.34,91.0296,269.0826,1.8808e-05,1.2e-07,0.0,0 STARLINK-3640,1 51988U 22025AJ  23208.78581668  .00000012  00000-0  18808-4 0  9998,2 51988  53.2175  10.3400 0001138  91.0296 269.0826 15.08836963 76751,6917.89,95.438,540.542,538.967,0.0
51988.0,STARLINK-3640,PAYLOAD,2023-07-28 10:45:26,15.0883563,9.92e-05,53.2189,7.3634,105.0356,255.0746,9.8909e-05,1.287e-05,0.0,0 STARLINK-3640,1 51988U 22025AJ  23209.44821775  .00001287  00000-0  98909-4 0  9993,2 51988  53.2189   7.3634 0000992 105.0356 255.0746 15.08835630 76858,6917.894,95.438,540.445,539.072,0.0
51988.0,STARLINK-3640,PAYLOAD,2023-07-28 17:06:58,15.08845979,0.0001122,53.2185,6.1753,102.1692,257.9426,5.3037e-05,5.56e-06,0.0,0 STARLINK-3640,1 51988U 22025AJ  23209.71317258  .00000556  00000-0  53037-4 0  9990,2 51988  53.2185   6.1753 0001122 102.1692 257.9426 15.08845979 78002,6917.862,95.437,540.503,538.951,0.0
